455P/PANSTARRS,e,14.1354,146.1818,237.5341,3.153204,0.1760257,0.30453274,131.4854,03/13.0/2025,2000,g 17.0,4.0
# From MPEC 2025-CE3
456P/PANSTARRS,e,16.9664,243.1509,233.0351,3.171109,0.1745369,0.11631994,354.2238,03/13.0/2025,2000,g 13.5,4.0
# From MPEC 2025-A40
457P/Lemmon-PANSTARRS,e,5.2256,175.9637,104.3354,2.645284,0.2290845,0.11841956,46.9312,03/13.0/2025,2000,g 15.5,4.0
# From MPEC 2023-HD1
458P/Jahn,e,13.6228,1.5675,104.9120,3.858976,0.1300158,0.31726656,112.3725,03/13.0/2025,2000,g 17.3,4.0
# From MPEC 2024-N80
459P/Catalina,e,7.1739,256.9879,205.2193,3.240314,0.1689754,0.57785772,126.7951,03/13.0/2025,2000,g 15.5,4.0
# From MPEC 2023-G14
460P/PANSTARRS,e,18.8996,180.5164,351.9368,3.027170,0.1871323,0.66417850,255.6395,03/13.0/2025,2000,g 21.0,4.0
# From MPEC 2024-GJ3
461P/WISE,e,18.4012,194.3787,174.8342,3.144169,0.1767849,0.56966589,221.9338,03/13.0/2025,2000,g 18.5,4.0
# From MPEC 2024-BE0
462P/LONEOS-PANSTARRS,e,7.0400,322.6921,4.2646,4.866104,0.0918189,0.57829513,87.6545,03/13.0/2025,2000,g 17.0,4.0
# From MPEC 2024-GJ3
463P/NEOWISE,e,29.2962,283.2182,216.3398,2.974169,0.1921567,0.82584270,137.2406,03/13.0/2025,2000,g 18.0,4.0
# From MPEC 2024-Q20
464P/PANSTARRS,e,21.6729,309.5778,267.5450,4.684326,0.0972150,0.28051690,72.3906,03/13.0/2025,2000,g 10.5,4.0
# From MPEC 2024-NE4
465P/Hill,e,25.8625,217.9713,141.0067,6.011982,0.0668617,0.61327087,45.0578,03/13.0/2025,2000,g 12.5,4.0
# From MPEC 2024-JU4
466P/PANSTARRS,e,12.4809,118.8149,197.6336,4.053867,0.1207535,0.47301314,81.6348,03/13.0/2025,2000,g 14.0,4.0
# From MPEC 2025-A40
467P/LINEAR-Grauer,e,2.4792,43.2639,267.6026,5.827236,0.0700665,0.05464264,58.5570,03/13.0/2025,2000,g  9.0,4.0
# From MPEC 2024-O39
468P/SidingSpring,e,50.4507,356.1250,322.5839,7.119158,0.0518873,0.44511009,24.7927,03/13.0/2025,2000,g 11.5,4.0
# From MPEC 2025-A40
469P/PANSTARRS,e,20.1728,178.9673,43.4942,4.342036,0.1089341,0.30791471,330.5423,03/13.0/2025,2000,g 13.5,4.0
# From MPEC 2025-CE3
470P/PANSTARRS,e,8.8443,246.1730,151.7336,4.465789,0.1044376,0.38951261,47.2113,03/13.0/2025,2000,g 15.5,4.0
# From MPEC 2025-DP4
471P/,e,4.7964,283.3093,94.8356,5.698204,0.0724598,0.62782731,32.5388,03/13.0/2025,2000,g 12.0,4.0
# From MPEC 2025-EG2
472P/NEAT-LINEAR,e,10.8240,205.8839,218.8694,7.794625,0.0452909,0.56530903,10.9369,03/13.0/2025,2000,g 10.5,4.0
# From MPEC 2024-MB8
473P/NEAT,e,56.9015,22.1885,42.9327,7.972137,0.0437867,0.82361232,16.6719,03/13.0/2025,2000,g 13.5,4.0
# From MPEC 2024-B74
474P/Hogan,e,1.0970,26.7485,11.2661,3.130436,0.1779495,0.18812946,107.8831,03/13.0/2025,2000,g 15.5,4.0
# From MPEC 2024-O39
475P/Spacewatch-LINEAR,e,14.5237,147.3639,40.3991,7.315771,0.0498097,0.44265688,14.1661,03/13.0/2025,2000,g 11.0,4.0
# From MPEC 2025-EB9
476P/PANSTARRS,e,19.0053,57.0523,46.7363,4.776494,0.0944148,0.34609304,13.9242,03/13.0/2025,2000,g 12.5,4.0
# From MPEC 2024-GJ3
477P/PANSTARRS,e,8.9139,59.1503,305.9015,3.002659,0.1894284,0.41748309,83.8089,03/13.0/2025,2000,g 14.5,4.0
# From MPEC 2024-L77
478P/ATLAS,e,12.5245,127.2652,13.2251,3.647458,0.1414877,0.34370551,44.5530,03/13.0/2025,2000,g 13.5,4.0
# From MPEC 2024-PC5
479P/Elenin,e,15.3996,295.8322,263.5112,5.623063,0.0739171,0.77887650,23.0438,03/13.0/2025,2000,g 15.0,4.0
# From MPEC 2025-EB9
480P/PANSTARRS,e,13.7171,229.9797,214.3847,4.610190,0.0995694,0.24637155,68.6409,03/13.0/2025,2000,g 12.0,4.0
# From MPEC 2025-A40
481P/Lemmon-PANSTARRS,e,6.0826,93.5501,356.7766,4.680962,0.0973199,0.34349824,59.6358,03/13.0/2025,2000,g 13.5,4.0
# From MPEC 2024-JU4
482P/PANSTARRS,e,24.4861,126.0810,339.7104,3.756498,0.1353721,0.49237965,87.9736,03/13.0/2025,2000,g 13.5,4.0
# From MPEC 2024-R10
483P-A/PANSTARRS,e,14.2115,199.4618,48.8609,3.193624,0.1726945,0.22306578,192.3203,03/13.0/2025,2000,g 13.5,4.0
# From MPEC 2024-R10
483P-B/PANSTARRS,e,14.2123,199.4611,48.8509,3.193553,0.1727002,0.22300595,192.3556,03/13.0/2025,2000,g 17.0,4.0
# From MPEC 2024-DD5
484P/Spacewatch,e,14.4747,265.3889,240.7824,3.757262,0.1353308,0.43283619,211.9908,03/13.0/2025,2000,g 16.0,4.0
# From MPEC 2024-JU4
485P/Sheppard-Tholen,e,10.0161,261.6442,196.0791,6.850092,0.0549743,0.41719419,31.1093,03/13.0/2025,2000,g 13.0,4.0
# From MPEC 2024-R10
486P/Leonard,e,2.2095,219.0258,93.9462,3.628124,0.1426201,0.36360058,356.8841,03/13.0/2025,2000,g 14.5,4.0
# From MPEC 2025-EG2
487P/SidingSpring,e,39.3666,49.2074,0.8540,5.164543,0.0839762,0.64858780,12.0401,03/13.0/2025,2000,g 13.5,4.0
# From MPEC 2024-UA9
488P/NEAT-PANSTARRS,e,11.3651,324.0325,1.5526,3.736157,0.1364792,0.55077514,40.6311,03/13.0/2025,2000,g 16.5,4.0
# From MPEC 2024-Q14
489P/Denning,e,4.0267,20.6115,109.4403,4.422806,0.1059637,0.64705828,331.7758,03/13.0/2025,2000,g 15.5,4.0
# From MPEC 2024-YC7
490P/ATLAS,e,12.2663,307.6069,332.5247,3.029582,0.1869089,0.64721496,30.9925,03/13.0/2025,2000,g 21.0,4.0
# From MPEC 2024-UQ8
491P/Spacewatch-PANSTARRS,e,9.3659,311.6857,298.8957,5.013427,0.0878015,0.25867572,16.4974,03/13.0/2025,2000,g  9.5,4.0
# From MPEC 2025-DP4
492P/LINEAR,e,11.4005,11.3076,40.9911,5.762117,0.0712576,0.69072867,16.7828,03/13.0/2025,2000,g 15.0,4.0
# From MPEC 2025-EB9
493P/LONEOS,e,24.1143,1.1123,83.1955,7.163017,0.0514115,0.46624079,344.2093,03/13.0/2025,2000,g 12.0,2.0
# From MPEC 2024-RQ6
494P/PANSTARRS,e,7.7899,245.0441,48.8744,3.794575,0.1333397,0.35688362,38.1352,03/13.0/2025,2000,g 16.0,4.0
# From MPEC 2025-A40
495P/Christensen,e,26.3541,291.6219,141.3429,4.754124,0.0950820,0.27222512,338.7531,03/13.0/2025,2000,g 11.5,4.0
# From MPEC 2025-EG2
496P/Hill,e,14.8145,63.5875,42.2474,6.102272,0.0653833,0.73435318,0.1776,03/13.0/2025,2000,g 14.0,4.0
# From MPEC 2025-A40
497P/Spacewatch-PANSTARRS,e,10.4376,40.3826,32.4153,5.617417,0.0740285,0.63057538,1.8975,03/13.0/2025,2000,g 17.5,4.0
# From MPC107687
1I/`Oumuamua,h,09/09.4886/2017,122.6778,24.5997,241.6845,1.199252,0.255240,2000,23.0,2.0
# From MPEC 2023-L37
2I/Borisov,h,12/08.5548/2019,44.0527,308.1480,209.1251,3.356633,2.006548,2000,11.0,4.0
